SEEDS II (CO-66)        
1 32791U 08021J   24366.66818929  .00027992  00000+0  16270-2 0  9999
2 32791  97.7126 338.0770 0005490  23.8385 336.3098 15.12036772906271
SWISSCUBE               
1 35932U 09051B   24366.64351943  .00004731  00000+0  98430-3 0  9994
2 35932  98.4477 253.7997 0008256  69.3645 290.8439 14.60509912811360
FUNCUBE-1 (AO-73)       
1 39444U 13066AE  24366.61945783  .00016918  00000+0  14080-2 0  9993
2 39444  97.7440 322.8371 0042431 200.3011 159.6526 14.98031380599604
FOX-1A (AO-85)          
1 40967U 15058D   25001.07932343  .00014613  00000+0  12524-2 0  9994
2 40967  64.7767 127.2080 0182443 244.7605 113.4498 14.85715402 34357
ASRTU-1 (AO-123)        
1 61781U 24199AY  24366.91129152  .00021195  00000+0  86101-3 0  9995
2 61781  97.3777 230.8117 0018810  45.7649 314.5129 15.24427321 52520
AEROCUBE 4.5A           
1 38767U 12048K   24365.52388701  .00043329  00000+0  16017-2 0  9997
2 38767  64.6528  37.8514 0111027 317.9001  41.3633 15.21795555290214
CANX-4                  
1 40055U 14034C   24366.64405022  .00004647  00000+0  62925-3 0  9997
2 40055  98.3760 209.6642 0012028 281.8535  78.1326 14.79437493565737
OPTICUBE 04             
1 41851U 16067D   25001.07728254  .00008506  00000+0  59335-3 0  9998
2 41851  98.0854 180.9074 0018513 110.6144 249.7068 15.05518209444980
PROMETHEUS 2-1          
1 41854U 16067G   25001.01680203  .00063644  00000+0  20683-2 0  9993
2 41854  98.0906 197.7067 0009739  89.4729 270.7626 15.31633024445854
SITRO-AIS 8 (ANOKHIN)   
1 57193U 23091AD  25001.12385952  .00025724  00000+0  13444-2 0  9990
2 57193  97.5843  58.3960 0015486 158.1278 202.0618 15.15759410 83413
SITRO-AIS 7 (FARTUSHNIY)
1 57194U 23091AE  25001.04290095  .00022433  00000+0  12050-2 0  9991
2 57194  97.5845  58.0459 0015775 158.8210 201.3678 15.14813079 83385
SITRO-AIS 9 (SHCHUKIN)  
1 57201U 23091AM  24366.95560584  .00028911  00000+0  14107-2 0  9998
2 57201  97.5856  59.7611 0011379 143.4400 216.7613 15.18193701 83488
SITRO-AIS 34            
1 59058U 24039H   25001.13552272  .00111360  00000+0  19547-2 0  9999
2 59058  97.4109 330.4987 0007994 208.2278 151.8541 15.50101735 47005
SITRO-AIS 27            
1 59068U 24039T   25001.12835109  .00012399  00000+0  10918-2 0  9997
2 59068  95.3849 231.6681 0162357  20.6608 340.1078 14.86879158 45482
GRBBETA                 
1 60237U 24128C   25001.17290052  .00013391  00000+0  10683-2 0  9995
2 60237  61.9938 274.3611 0033663  19.3577 340.8782 15.00156150 26265
ORBCOMM FM107           
1 40087U 14040B   24366.73407461  .00002822  00000+0  64879-3 0  9991
2 40087  47.0047  87.8751 0002386 250.5382 109.5246 14.57693842556702
IRIDIUM 102             
1 41920U 17003D   24366.58409326  .00000012  00000+0 -27341-5 0  9990
2 41920  86.3977 310.9790 0002334  85.2290 274.9173 14.34214218416942
IRIDIUM 111             
1 41926U 17003K   24366.85683006  .00000470  00000+0  16084-3 0  9992
2 41926  86.3975 310.8098 0002046  84.4020 275.7409 14.34219693416952
IRIDIUM 118             
1 42807U 17039E   24366.84021830  .00000220  00000+0  71659-4 0  9993
2 42807  86.3976 216.0656 0002031  86.5475 273.5953 14.34217627393645
IRIDIUM 152             
1 43479U 18047D   24366.69826529  .00000428  00000+0  14574-3 0  9992
2 43479  86.3970 310.8497 0002093  82.6003 277.5431 14.34219300346163
IRIDIUM 177             
1 56727U 23068T   24366.55432735  .00004249  00000+0  55571-3 0  9995
2 56727  86.1977 221.6352 0001740  90.0250 270.1170 14.80224753 87577
