OBJECT_NAME,OBJECT_ID,EPOCH,MEAN_MOTION,ECCENTRICITY,INCLINATION,RA_OF_ASC_NODE,ARG_OF_PERICENTER,MEAN_ANOMALY,EPHEMERIS_TYPE,CLASSIFICATION_TYPE,NORAD_CAT_ID,ELEMENT_SET_NO,REV_AT_EPOCH,BSTAR,MEAN_MOTION_DOT,MEAN_MOTION_DDOT,SEMIMAJOR_AXIS,SATELLITE_TYPE
SEEDS II (CO-66),2008-021J,2024-12-31T16:02:11.554656,15.12036772,0.000549,97.7126,338.077,23.8385,336.3098,0,U,32791,999,90627,0.001627,0.00027992,0.0,6908.126355343242,CubeSat
SITRO-AIS 27,2024-039T,2025-01-01T03:04:49.534176,14.86879158,0.0162357,95.3849,231.6681,20.6608,340.1078,0,U,59068,999,4548,0.0010918,0.00012399,0.0,6985.830737642158,CubeSat
FUNCUBE-1 (AO-73),2013-066AE,2024-12-31T14:52:01.156512,14.9803138,0.0042431,97.744,322.8371,200.3011,159.6526,0,U,39444,999,59960,0.001408,0.00016918,0.0,6951.116502060727,Amateur Radio
SWISSCUBE,2009-051B,2024-12-31T15:26:40.078752,14.60509912,0.0008256,98.4477,253.7997,69.3645,290.8439,0,U,35932,999,81136,0.0009843,4.731e-05,0.0,7069.665008161548,CubeSat
IRIDIUM 152,2018-047D,2024-12-31T16:45:30.121056,14.342193,0.0002093,86.397,310.8497,82.6003,277.5431,0,U,43479,999,34616,0.00014574,4.28e-06,0.0,7155.798998703793,Iridium Next
OPTICUBE 04,2016-067D,2025-01-01T01:51:17.211456,15.05518209,0.0018513,98.0854,180.9074,110.6144,249.7068,0,U,41851,999,44498,0.00059335,8.506e-05,0.0,6928.052439355376,CubeSat
FOX-1A (AO-85),2015-058D,2025-01-01T01:54:13.544352,14.85715402,0.0182443,64.7767,127.208,244.7605,113.4498,0,U,40967,999,3435,0.0012524,0.00014613,0.0,6989.478247096988,CubeSat
SITRO-AIS 9 (SHCHUKIN),2023-091AM,2024-12-31T22:56:04.344576,15.18193701,0.0011379,97.5856,59.7611,143.44,216.7613,0,U,57201,999,8348,0.0014107,0.00028911,0.0,6889.436757931628,CubeSat
PROMETHEUS 2-1,2016-067G,2025-01-01T00:24:11.695392,15.31633024,0.0009739,98.0906,197.7067,89.4729,270.7626,0,U,41854,999,44585,0.0020683,0.00063644,0.0,6849.076654471864,CubeSat
SITRO-AIS 34,2024-039H,2025-01-01T03:15:09.163008,15.50101735,0.0007994,97.4109,330.4987,208.2278,151.8541,0,U,59058,999,4700,0.0019547,0.0011136,0.0,6794.565762728206,CubeSat
SITRO-AIS 8 (ANOKHIN),2023-091AD,2025-01-01T02:58:21.462528,15.1575941,0.0015486,97.5843,58.396,158.1278,202.0618,0,U,57193,999,8341,0.0013444,0.00025724,0.0,6896.811018873239,CubeSat
AEROCUBE 4.5A,2012-048K,2024-12-30T12:34:23.837664,15.21795555,0.0111027,64.6528,37.8514,317.9001,41.3633,0,U,38767,999,29021,0.0016017,0.00043329,0.0,6878.561646466735,CubeSat
IRIDIUM 177,2023-068T,2024-12-31T13:18:13.883040,14.80224753,0.000174,86.1977,221.6352,90.025,270.117,0,U,56727,999,8757,0.00055571,4.249e-05,0.0,7006.751788527148,Iridium Next
CANX-4,2014-034C,2024-12-31T15:27:25.939008,14.79437493,0.0012028,98.376,209.6642,281.8535,78.1326,0,U,40055,999,56573,0.00062925,4.647e-05,0.0,7009.237258549208,CubeSat
GRBBETA,2024-128C,2025-01-01T04:08:58.604928,15.0015615,0.0033663,61.9938,274.3611,19.3577,340.8782,0,U,60237,999,2626,0.0010683,0.00013391,0.0,6944.551402147658,CubeSat
SITRO-AIS 7 (FARTUSHNIY),2023-091AE,2025-01-01T01:01:46.642080,15.14813079,0.0015775,97.5845,58.0459,158.821,201.3678,0,U,57194,999,8338,0.001205,0.00022433,0.0,6899.683094551788,CubeSat
IRIDIUM 118,2017-039E,2024-12-31T20:09:54.861120,14.34217627,0.0002031,86.3976,216.0656,86.5475,273.5953,0,U,42807,999,39364,7.1659e-05,2.2e-06,0.0,7155.804563479633,Iridium Next
ORBCOMM FM107,2014-040B,2024-12-31T17:37:04.046304,14.57693842,0.0002386,47.0047,87.8751,250.5382,109.5246,0,U,40087,999,55670,0.00064879,2.822e-05,0.0,7078.7671786879,Orbcomm
IRIDIUM 102,2017-003D,2024-12-31T14:01:05.657664,14.34214218,0.0002334,86.3977,310.979,85.229,274.9173,0,U,41920,999,41694,-2.7341e-06,1.2e-07,0.0,7155.815902617021,Iridium Next
IRIDIUM 111,2017-003K,2024-12-31T20:33:50.117184,14.34219693,0.0002046,86.3975,310.8098,84.402,275.7409,0,U,41926,999,41695,0.00016084,4.7e-06,0.0,7155.797691498605,Iridium Next
ASRTU-1 (AO-123),2024-199AY,2024-12-31T21:52:15.587328,15.24427321,0.001881,97.3777,230.8117,45.7649,314.5129,0,U,61781,999,5252,0.00086101,0.00021195,0.0,6870.642616948983,Amateur Radio
